{
    "links": {
        "self": "http://www.neowsapp.com/rest/v1/neo/3653694?api_key=iIulBulltgU6a56xZRHN4H3l9WmuAYTsLGpBGhQ2"
    },
    "id": "3653694",
    "neo_reference_id": "3653694",
    "name": "(2013 VO13)",
    "designation": "2013 VO13",
    "nasa_jpl_url": "http://ssd.jpl.nasa.gov/sbdb.cgi?sstr=3653694",
    "absolute_magnitude_h": 22.7,
    "estimated_diameter": {
        "kilometers": {
            "estimated_diameter_min": 0.0766575574,
            "estimated_diameter_max": 0.1714115092
        },
        "meters": {
            "estimated_diameter_min": 76.6575573531,
            "estimated_diameter_max": 171.4115092306
        },
        "miles": {
            "estimated_diameter_min": 0.0476327831,
            "estimated_diameter_max": 0.1065101409
        },
        "feet": {
            "estimated_diameter_min": 251.5011804664,
            "estimated_diameter_max": 562.3737359442
        }
    },
    "is_potentially_hazardous_asteroid": false,
    "close_approach_data": [
        {
            "close_approach_date": "2003-11-16",
            "close_approach_date_full": "2003-Nov-16 20:42",
            "epoch_date_close_approach": 1069015320000,
            "relative_velocity": {
                "kilometers_per_second": "15.1458766081",
                "kilometers_per_hour": "54525.1557892752",
                "miles_per_hour": "33879.8113847305"
            },
            "miss_distance": {
                "astronomical": "0.0566366217",
                "lunar": "22.0316458413",
                "kilometers": "8472717.970315779",
                "miles": "5264702.8192405902"
            },
            "orbiting_body": "Earth"
        },
        {
            "close_approach_date": "2013-11-17",
            "close_approach_date_full": "2013-Nov-17 19:54",
            "epoch_date_close_approach": 1384718040000,
            "relative_velocity": {
                "kilometers_per_second": "13.6666445674",
                "kilometers_per_hour": "49199.9204428081",
                "miles_per_hour": "30570.9172329215"
            },
            "miss_distance": {
                "astronomical": "0.0869394564",
                "lunar": "33.8194485396",
                "kilometers": "13005957.496397868",
                "miles": "8081527.2428638584"
            },
            "orbiting_body": "Earth"
        },
        {
            "close_approach_date": "2015-05-12",
            "close_approach_date_full": "2015-May-12 09:37",
            "epoch_date_close_approach": 1431423420000,
            "relative_velocity": {
                "kilometers_per_second": "14.1637539111",
                "kilometers_per_hour": "50989.5140799204",
                "miles_per_hour": "31682.901123715"
            },
            "miss_distance": {
                "astronomical": "0.0986125737",
                "lunar": "38.3602911693",
                "kilometers": "14752230.980738019",
                "miles": "9166611.2700179022"
            },
            "orbiting_body": "Earth"
        }
    ],
    "orbital_data": {
        "orbit_id": "7",
        "orbit_determination_date": "2017-04-06 08:43:39",
        "first_observation_date": "2013-11-11",
        "last_observation_date": "2013-11-18",
        "data_arc_in_days": 7,
        "observations_used": 39,
        "orbit_uncertainty": "8",
        "minimum_orbit_intersection": ".051277",
        "jupiter_tisserand_invariant": "5.640",
        "epoch_osculation": "2456609.5",
        "eccentricity": ".2891819712736142",
        "semi_major_axis": "1.073924777958712",
        "inclination": "23.89758994264012",
        "ascending_node_longitude": "230.5765465720126",
        "orbital_period": "406.4987560251587",
        "perihelion_distance": ".7633650936690335",
        "perihelion_argument": "283.1361601665364",
        "aphelion_distance": "1.384484462248391",
        "perihelion_time": "2456691.486606025950",
        "mean_anomaly": "287.3917134262638",
        "mean_motion": ".8856115662447912",
        "equinox": "J2000",
        "orbit_class": {
            "orbit_class_type": "APO",
            "orbit_class_description": "Near-Earth asteroid orbits which cross the Earth’s orbit similar to that of 1862 Apollo",
            "orbit_class_range": "a (semi-major axis) > 1.0 AU; q (perihelion) < 1.017 AU"
        }
    },
    "is_sentry_object": false
}